start=new Date('2022-02-05T00:00:00.000Z').valueOf();
sats=[{"DECAY_DATE":null,"MEAN_ELEMENT_THEORY":"SGP4","GP_ID":"195304080","MEAN_MOTION_DOT":"0.00004685","NORAD_CAT_ID":"46172","SEMIMAJOR_AXIS":"6925.300","SITE":"AFETR","REV_AT_EPOCH":"8183","TLE_LINE2":"2 46172  53.0540 163.0180 0001754  77.6803 282.4382 15.06415749 81837","RA_OF_ASC_NODE":"163.0180","APOAPSIS":"548.380","FILE":"3291923","MEAN_MOTION":"15.06415749","TLE_LINE1":"1 46172U 20057BH  22035.78727807  .00004685  00000-0  33308-3 0  9995","PERIOD":"95.591","LAUNCH_DATE":"2020-08-18","PERIAPSIS":"545.951","CENTER_NAME":"EARTH","INCLINATION":"53.0540","COUNTRY_CODE":"US","REF_FRAME":"TEME","OBJECT_ID":"2020-057BH","BSTAR":"0.00033308000000","EPHEMERIS_TYPE":"0","RCS_SIZE":"LARGE","ELEMENT_SET_NO":"999","OBJECT_NAME":"STARLINK-1635","MEAN_MOTION_DDOT":"0.0000000000000","ECCENTRICITY":"0.00017540","TIME_SYSTEM":"UTC","ARG_OF_PERICENTER":"77.6803","MEAN_ANOMALY":"282.4382","CLASSIFICATION_TYPE":"U","OBJECT_TYPE":"PAYLOAD","EPOCH":"2022-02-04T18:53:40.825248"},{"APOAPSIS":"548.386","FILE":"3291920","MEAN_MOTION":"15.06385344","REV_AT_EPOCH":"8155","TLE_LINE2":"2 46173  53.0553 183.1050 0001628  86.6539 273.4636 15.06385344 81555","RA_OF_ASC_NODE":"183.1050","SITE":"AFETR","MEAN_MOTION_DOT":"-0.00002521","SEMIMAJOR_AXIS":"6925.393","NORAD_CAT_ID":"46173","GP_ID":"195304095","MEAN_ELEMENT_THEORY":"SGP4","DECAY_DATE":null,"REF_FRAME":"TEME","OBJECT_ID":"2020-057BJ","COUNTRY_CODE":"US","CENTER_NAME":"EARTH","INCLINATION":"53.0553","PERIAPSIS":"546.131","PERIOD":"95.593","LAUNCH_DATE":"2020-08-18","TLE_LINE1":"1 46173U 20057BJ  22035.76703643 -.00002521  00000-0 -15046-3 0  9994","ECCENTRICITY":"0.00016280","MEAN_MOTION_DDOT":"0.0000000000000","ELEMENT_SET_NO":"999","RCS_SIZE":"LARGE","OBJECT_NAME":"STARLINK-1640","EPHEMERIS_TYPE":"0","BSTAR":"-0.00015046000000","EPOCH":"2022-02-04T18:24:31.947552","OBJECT_TYPE":"PAYLOAD","CLASSIFICATION_TYPE":"U","MEAN_ANOMALY":"273.4636","TIME_SYSTEM":"UTC","ARG_OF_PERICENTER":"86.6539"},{"OBJECT_ID":"2020-057BK","REF_FRAME":"TEME","COUNTRY_CODE":"US","INCLINATION":"53.0552","CENTER_NAME":"EARTH","PERIAPSIS":"546.171","LAUNCH_DATE":"2020-08-18","PERIOD":"95.592","TLE_LINE1":"1 46174U 20057BK  22035.70804344 -.00000303  00000-0 -14441-5 0  9995","FILE":"3291920","MEAN_MOTION":"15.06400100","APOAPSIS":"548.256","RA_OF_ASC_NODE":"183.3626","REV_AT_EPOCH":"8154","TLE_LINE2":"2 46174  53.0552 183.3626 0001505  79.1370 280.9788 15.06400100 81548","SITE":"AFETR","SEMIMAJOR_AXIS":"6925.348","NORAD_CAT_ID":"46174","MEAN_MOTION_DOT":"-0.00000303","GP_ID":"195303841","MEAN_ELEMENT_THEORY":"SGP4","DECAY_DATE":null,"CLASSIFICATION_TYPE":"U","OBJECT_TYPE":"PAYLOAD","EPOCH":"2022-02-04T16:59:34.953216","MEAN_ANOMALY":"280.9788","TIME_SYSTEM":"UTC","ARG_OF_PERICENTER":"79.1370","ECCENTRICITY":"0.00015050","MEAN_MOTION_DDOT":"0.0000000000000","RCS_SIZE":"LARGE","ELEMENT_SET_NO":"999","OBJECT_NAME":"STARLINK-1641","EPHEMERIS_TYPE":"0","BSTAR":"-0.00000144410000"},{"DECAY_DATE":null,"MEAN_ELEMENT_THEORY":"SGP4","GP_ID":"195306152","NORAD_CAT_ID":"46325","SEMIMAJOR_AXIS":"6925.332","MEAN_MOTION_DOT":"0.00003217","SITE":"AFETR","RA_OF_ASC_NODE":"198.0176","REV_AT_EPOCH":"8036","TLE_LINE2":"2 46325  53.0532 198.0176 0001628  72.8131 287.3036 15.06405291 80360","FILE":"3291992","MEAN_MOTION":"15.06405291","APOAPSIS":"548.325","TLE_LINE1":"1 46325U 20062A   22035.78591278  .00003217  00000-0  23471-3 0  9992","LAUNCH_DATE":"2020-09-03","PERIOD":"95.592","PERIAPSIS":"546.070","INCLINATION":"53.0532","CENTER_NAME":"EARTH","COUNTRY_CODE":"US","OBJECT_ID":"2020-062A","REF_FRAME":"TEME","BSTAR":"0.00023471000000","EPHEMERIS_TYPE":"0","RCS_SIZE":"LARGE","ELEMENT_SET_NO":"999","OBJECT_NAME":"STARLINK-1734","MEAN_MOTION_DDOT":"0.0000000000000","ECCENTRICITY":"0.00016280","ARG_OF_PERICENTER":"72.8131","TIME_SYSTEM":"UTC","MEAN_ANOMALY":"287.3036","CLASSIFICATION_TYPE":"U","OBJECT_TYPE":"PAYLOAD","EPOCH":"2022-02-04T18:51:42.864192"},{"MEAN_MOTION_DDOT":"0.0000000000000","ECCENTRICITY":"0.00017390","BSTAR":"0.00038580000000","EPHEMERIS_TYPE":"0","RCS_SIZE":"LARGE","ELEMENT_SET_NO":"999","OBJECT_NAME":"STARLINK-1654","MEAN_ANOMALY":"285.4569","CLASSIFICATION_TYPE":"U","OBJECT_TYPE":"PAYLOAD","EPOCH":"2022-02-04T13:28:37.345440","ARG_OF_PERICENTER":"74.6612","TIME_SYSTEM":"UTC","SITE":"AFETR","REV_AT_EPOCH":"7911","TLE_LINE2":"2 46326  53.0525 244.0108 0001739  74.6612 285.4569 15.06403476 79111","RA_OF_ASC_NODE":"244.0108","APOAPSIS":"548.407","MEAN_MOTION":"15.06403476","FILE":"3291889","DECAY_DATE":null,"GP_ID":"195299268","MEAN_ELEMENT_THEORY":"SGP4","MEAN_MOTION_DOT":"0.00005470","SEMIMAJOR_AXIS":"6925.338","NORAD_CAT_ID":"46326","CENTER_NAME":"EARTH","INCLINATION":"53.0525","COUNTRY_CODE":"US","REF_FRAME":"TEME","OBJECT_ID":"2020-062B","TLE_LINE1":"1 46326U 20062B   22035.56154335  .00005470  00000-0  38580-3 0  9998","PERIOD":"95.592","LAUNCH_DATE":"2020-09-03","PERIAPSIS":"545.999"},{"MEAN_MOTION_DDOT":"0.0000000000000","ECCENTRICITY":"0.00017160","EPHEMERIS_TYPE":"0","BSTAR":"0.00007912900000","RCS_SIZE":"LARGE","ELEMENT_SET_NO":"999","OBJECT_NAME":"STARLINK-1673","MEAN_ANOMALY":"286.0192","EPOCH":"2022-02-04T06:35:56.011776","OBJECT_TYPE":"PAYLOAD","CLASSIFICATION_TYPE":"U","ARG_OF_PERICENTER":"74.0986","TIME_SYSTEM":"UTC","SITE":"AFETR","FILE":"3291889","MEAN_MOTION":"15.06405304","APOAPSIS":"548.386","RA_OF_ASC_NODE":"245.3189","TLE_LINE2":"2 46327  53.0530 245.3189 0001716  74.0986 286.0192 15.06405304 79069","REV_AT_EPOCH":"7906","DECAY_DATE":null,"NORAD_CAT_ID":"46327","SEMIMAJOR_AXIS":"6925.332","MEAN_MOTION_DOT":"0.00000897","MEAN_ELEMENT_THEORY":"SGP4","GP_ID":"195299519","INCLINATION":"53.0530","CENTER_NAME":"EARTH","OBJECT_ID":"2020-062C","REF_FRAME":"TEME","COUNTRY_CODE":"US","TLE_LINE1":"1 46327U 20062C   22035.27495384  .00000897  00000-0  79129-4 0  9992","PERIAPSIS":"546.009","LAUNCH_DATE":"2020-09-03","PERIOD":"95.592"},{"SITE":"AFETR","TLE_LINE2":"2 46328  53.0537 223.0168 0001661  68.1877 291.9289 15.06401111 79591","REV_AT_EPOCH":"7959","RA_OF_ASC_NODE":"223.0168","APOAPSIS":"548.360","FILE":"3291944","MEAN_MOTION":"15.06401111","DECAY_DATE":null,"MEAN_ELEMENT_THEORY":"SGP4","GP_ID":"195304362","MEAN_MOTION_DOT":"0.00001971","NORAD_CAT_ID":"46328","SEMIMAJOR_AXIS":"6925.345","CENTER_NAME":"EARTH","INCLINATION":"53.0537","COUNTRY_CODE":"US","REF_FRAME":"TEME","OBJECT_ID":"2020-062D","TLE_LINE1":"1 46328U 20062D   22035.78545829  .00001971  00000-0  15115-3 0  9997","PERIOD":"95.592","LAUNCH_DATE":"2020-09-03","PERIAPSIS":"546.060","MEAN_MOTION_DDOT":"0.0000000000000","ECCENTRICITY":"0.00016610","BSTAR":"0.00015115000000","EPHEMERIS_TYPE":"0","RCS_SIZE":"LARGE","OBJECT_NAME":"STARLINK-1686","ELEMENT_SET_NO":"999","MEAN_ANOMALY":"291.9289","OBJECT_TYPE":"PAYLOAD","EPOCH":"2022-02-04T18:51:03.596256","CLASSIFICATION_TYPE":"U","ARG_OF_PERICENTER":"68.1877","TIME_SYSTEM":"UTC"},{"ECCENTRICITY":"0.00017280","MEAN_MOTION_DDOT":"0.0000000000000","RCS_SIZE":"LARGE","ELEMENT_SET_NO":"999","OBJECT_NAME":"STARLINK-1695","EPHEMERIS_TYPE":"0","BSTAR":"0.00001353200000","OBJECT_TYPE":"PAYLOAD","CLASSIFICATION_TYPE":"U","EPOCH":"2022-02-04T19:38:49.200000","MEAN_ANOMALY":"288.3968","ARG_OF_PERICENTER":"71.7208","TIME_SYSTEM":"UTC","MEAN_MOTION":"15.06400583","FILE":"3291951","APOAPSIS":"548.408","RA_OF_ASC_NODE":"222.8614","TLE_LINE2":"2 46329  53.0538 222.8614 0001728  71.7208 288.3968 15.06400583 79606","REV_AT_EPOCH":"7960","SITE":"AFETR","NORAD_CAT_ID":"46329","SEMIMAJOR_AXIS":"6925.347","MEAN_MOTION_DOT":"-0.00000080","MEAN_ELEMENT_THEORY":"SGP4","GP_ID":"195304976","DECAY_DATE":null,"OBJECT_ID":"2020-062E","REF_FRAME":"TEME","COUNTRY_CODE":"US","INCLINATION":"53.0538","CENTER_NAME":"EARTH","PERIAPSIS":"546.015","LAUNCH_DATE":"2020-09-03","PERIOD":"95.592","TLE_LINE1":"1 46329U 20062E   22035.81862500 -.00000080  00000-0  13532-4 0  9993"},{"CENTER_NAME":"EARTH","INCLINATION":"53.0531","COUNTRY_CODE":"US","REF_FRAME":"TEME","OBJECT_ID":"2020-062F","TLE_LINE1":"1 46330U 20062F   22035.80757392  .00000121  00000-0  27020-4 0  9998","PERIOD":"95.592","LAUNCH_DATE":"2020-09-03","PERIAPSIS":"545.930","SITE":"AFETR","TLE_LINE2":"2 46330  53.0531 222.9105 0001861  74.9815 285.1380 15.06398241 79435","REV_AT_EPOCH":"7943","RA_OF_ASC_NODE":"222.9105","APOAPSIS":"548.508","MEAN_MOTION":"15.06398241","FILE":"3291952","DECAY_DATE":null,"GP_ID":"195304490","MEAN_ELEMENT_THEORY":"SGP4","MEAN_MOTION_DOT":"0.00000121","SEMIMAJOR_AXIS":"6925.354","NORAD_CAT_ID":"46330","MEAN_ANOMALY":"285.1380","OBJECT_TYPE":"PAYLOAD","CLASSIFICATION_TYPE":"U","EPOCH":"2022-02-04T19:22:54.386688","ARG_OF_PERICENTER":"74.9815","TIME_SYSTEM":"UTC","MEAN_MOTION_DDOT":"0.0000000000000","ECCENTRICITY":"0.00018610","BSTAR":"0.00002702000000","EPHEMERIS_TYPE":"0","ELEMENT_SET_NO":"999","RCS_SIZE":"LARGE","OBJECT_NAME":"STARLINK-1710"},{"OBJECT_TYPE":"PAYLOAD","EPOCH":"2022-02-04T13:51:11.055456","CLASSIFICATION_TYPE":"U","MEAN_ANOMALY":"287.8038","TIME_SYSTEM":"UTC","ARG_OF_PERICENTER":"72.3131","ECCENTRICITY":"0.00016520","MEAN_MOTION_DDOT":"0.0000000000000","ELEMENT_SET_NO":"999","RCS_SIZE":"LARGE","OBJECT_NAME":"STARLINK-1719","BSTAR":"0.00010247000000","EPHEMERIS_TYPE":"0","COUNTRY_CODE":"US","REF_FRAME":"TEME","OBJECT_ID":"2020-062G","CENTER_NAME":"EARTH","INCLINATION":"53.0524","PERIOD":"95.593","LAUNCH_DATE":"2020-09-03","PERIAPSIS":"546.097","TLE_LINE1":"1 46331U 20062G   22035.57721129  .00001245  00000-0  10247-3 0  9992","TLE_LINE2":"2 46331  53.0524 243.9614 0001652  72.3131 287.8038 15.06390878 79119","REV_AT_EPOCH":"7911","RA_OF_ASC_NODE":"243.9614","APOAPSIS":"548.386","FILE":"3291889","MEAN_MOTION":"15.06390878","SITE":"AFETR","GP_ID":"195300019","MEAN_ELEMENT_THEORY":"SGP4","MEAN_MOTION_DOT":"0.00001245","NORAD_CAT_ID":"46331","SEMIMAJOR_AXIS":"6925.377","DECAY_DATE":null}];
